H1 CPF 01  gfz 2021 12 31 01  8651 terrasarx 
H2 0702601  6201 31698    2021 12 31 00 59 42 2022 01 05 00 00 42   120 1 1  0 0 0
H9
10 0 59580  82782.000000  0    -509286.168   4428682.082  -5259097.715
10 0 59580  82902.000000  0    -213635.954   3738224.205  -5789190.984
10 0 59580  83022.000000  0      73027.514   2977804.662  -6218114.021
10 0 59580  83142.000000  0     344624.426   2160872.123  -6538461.164
10 0 59580  83262.000000  0     595587.527   1301927.435  -6744712.614
10 0 59580  83382.000000  0     820971.554    416267.682  -6833320.599
10 0 59580  83502.000000  0    1016546.926   -480282.214  -6802763.572
10 0 59580  83622.000000  0    1178876.343  -1371646.743  -6653568.528
10 0 59580  83742.000000  0    1305373.469  -2241780.046  -6388301.503
10 0 59580  83862.000000  0    1394343.850  -3074946.948  -6011529.329
10 0 59580  83982.000000  0    1445006.985  -3856004.073  -5529751.188
10 0 59580  84102.000000  0    1457498.133  -4570675.690  -4951296.295
10 0 59580  84222.000000  0    1432851.583  -5205816.161  -4286190.328
10 0 59580  84342.000000  0    1372964.183  -5749658.306  -3545993.299
10 0 59580  84462.000000  0    1280538.997  -6192041.264  -2743606.757
10 0 59580  84582.000000  0    1159011.578  -6524611.608  -1893054.286
10 0 59580  84702.000000  0    1012459.710  -6740993.504  -1009237.932
10 0 59580  84822.000000  0     845497.419  -6836922.146   -107674.483
10 0 59580  84942.000000  0     663156.858  -6810336.062    795782.428
10 0 59580  85062.000000  0     470760.909  -6661426.624   1685228.465
10 0 59580  85182.000000  0     273789.520  -6392642.613   2544998.091
10 0 59580  85302.000000  0      77743.233  -6008647.667   3359950.628
10 0 59580  85422.000000  0    -111993.152  -5516231.534   4115743.576
10 0 59580  85542.000000  0    -290282.653  -4924181.715   4799087.984
10 0 59580  85662.000000  0    -452360.415  -4243116.882   5397983.614
10 0 59580  85782.000000  0    -593947.197  -3485286.746   5901928.287
10 0 59580  85902.000000  0    -711350.145  -2664341.561   6302098.725
10 0 59580  86022.000000  0    -801548.441  -1795078.657   6591497.313
10 0 59580  86142.000000  0    -862262.468   -893173.114   6765067.680
10 0 59580  86262.000000  0    -892005.790     25106.423   6819779.086
10 0 59580  86382.000000  0    -890118.762    943191.777   6754676.264
10 0 59581    102.000000  0    -856782.058   1844513.783   6570895.019
10 0 59581    222.000000  0    -793010.699   2712800.692   6271643.520
10 0 59581    342.000000  0    -700629.162   3532372.009   5862150.012
10 0 59581    462.000000  0    -582227.885   4288424.000   5349576.581
10 0 59581    582.000000  0    -441101.397   4967300.865   4742899.914
10 0 59581    702.000000  0    -281169.676   5556749.500   4052760.226
10 0 59581    822.000000  0    -106883.199   6046147.980   3291277.137
10 0 59581    942.000000  0      76884.119   6426707.171   2471842.433
10 0 59581   1062.000000  0     264954.249   6691643.019   1608880.822
10 0 59581   1182.000000  0     451973.990   6836303.575    717589.778
10 0 59581   1302.000000  0     632548.848   6858255.967   -186334.501
10 0 59581   1422.000000  0     801379.072   6757329.067  -1086982.319
10 0 59581   1542.000000  0     953392.889   6535609.582  -1968519.281
10 0 59581   1662.000000  0    1083874.103   6197393.834  -2815471.794
10 0 59581   1782.000000  0    1188581.804   5749096.083  -3613003.939
10 0 59581   1902.000000  0    1263859.241   5199115.914  -4347179.769
10 0 59581   2022.000000  0    1306729.016   4557668.441  -5005205.599
10 0 59581   2142.000000  0    1314972.447   3836582.474  -5575647.174
10 0 59581   2262.000000  0    1287191.281   3049073.314  -6048619.901
10 0 59581   2382.000000  0    1222851.022   2209493.281  -6415949.905
10 0 59581   2502.000000  0    1122305.035   1333067.338  -6671302.773
10 0 59581   2622.000000  0     986799.791    435618.854  -6810282.956
10 0 59581   2742.000000  0     818460.892   -466712.422  -6830501.549
10 0 59581   2862.000000  0     620259.951  -1357755.031  -6731611.877
10 0 59581   2982.000000  0     395963.208  -2221587.592  -6515313.251
10 0 59581   3102.000000  0     150062.958  -3042815.260  -6185326.393
10 0 59581   3222.000000  0    -112309.043  -3806841.090  -5747337.624
10 0 59581   3342.000000  0    -385483.214  -4500124.082  -5208909.671
10 0 59581   3462.000000  0    -663367.865  -5110421.468  -4579362.803
10 0 59581   3582.000000  0    -939578.036  -5627011.582  -3869624.841
10 0 59581   3702.000000  0   -1207574.629  -6040891.887  -3092050.793
10 0 59581   3822.000000  0   -1460810.720  -6344947.251  -2260214.675
10 0 59581   3942.000000  0   -1692882.246  -6534085.205  -1388676.186
10 0 59581   4062.000000  0   -1897679.078  -6605333.457   -492724.757
10 0 59581   4182.000000  0   -2069532.777  -6557895.783    411893.421
10 0 59581   4302.000000  0   -2203357.547  -6393164.263   1309259.392
10 0 59581   4422.000000  0   -2294780.316  -6114687.305   2183570.364
10 0 59581   4542.000000  0   -2340256.324  -5728093.833   3019427.253
10 0 59581   4662.000000  0   -2337166.816  -5240975.444   3802113.780
10 0 59581   4782.000000  0   -2283896.698  -4662730.383   4517860.679
10 0 59581   4902.000000  0   -2179890.852  -4004374.377   5154090.144
10 0 59581   5022.000000  0   -2025688.244  -3278322.073   5699637.398
10 0 59581   5142.000000  0   -1822931.706  -2498143.550   6144943.346
10 0 59581   5262.000000  0   -1574353.670  -1678304.782   6482216.253
10 0 59581   5382.000000  0   -1283739.560   -833895.680   6705562.668
10 0 59581   5502.000000  0    -955869.914     19650.864   6811083.846
10 0 59581   5622.000000  0    -596442.081    866840.374   6796938.684
10 0 59581   5742.000000  0    -211971.195   1692397.377   6663374.737
10 0 59581   5862.000000  0     190327.912   2481540.618   6412724.189
10 0 59581   5982.000000  0     602675.546   3220247.505   6049365.251
10 0 59581   6102.000000  0    1016876.033   3895504.525   5579650.701
10 0 59581   6222.000000  0    1424478.914   4495540.268   5011802.581
10 0 59581   6342.000000  0    1816949.860   5010036.740   4355774.319
10 0 59581   6462.000000  0    2185848.025   5430313.744   3623080.718
10 0 59581   6582.000000  0    2523006.863   5749483.194   2826600.577
10 0 59581   6702.000000  0    2820712.848   5962573.162   1980349.750
10 0 59581   6822.000000  0    3071879.147   6066611.133   1099229.224
10 0 59581   6942.000000  0    3270207.716   6060666.686    198756.283
10 0 59581   7062.000000  0    3410337.116   5945853.898   -705216.329
10 0 59581   7182.000000  0    3487972.769   5725291.928  -1596788.036
10 0 59581   7302.000000  0    3499995.401   5404025.928  -2460297.708
10 0 59581   7422.000000  0    3444545.683   4988909.802  -3280605.676
10 0 59581   7542.000000  0    3321081.765   4488453.496  -4043363.289
10 0 59581   7662.000000  0    3130409.424   3912640.518  -4735263.191
10 0 59581   7782.000000  0    2874684.950   3272721.617  -5344267.939
10 0 59581   7902.000000  0    2557391.225   2580987.923  -5859812.354
10 0 59581   8022.000000  0    2183287.906   1850529.955  -6272977.032
10 0 59581   8142.000000  0    1758336.771   1094987.754  -6576630.977
10 0 59581   8262.000000  0    1289605.771    328297.645  -6765542.765
10 0 59581   8382.000000  0     785151.717   -435560.569  -6836462.517
10 0 59581   8502.000000  0     253882.382  -1182813.890  -6788171.281
10 0 59581   8622.000000  0    -294597.171  -1900137.738  -6621498.032
10 0 59581   8742.000000  0    -850153.228  -2574886.777  -6339307.955
10 0 59581   8862.000000  0   -1402306.375  -3195314.738  -5946459.372
10 0 59581   8982.000000  0   -1940424.165  -3750777.137  -5449728.086
10 0 59581   9102.000000  0   -2453921.908  -4231915.320  -4857702.438
10 0 59581   9222.000000  0   -2932469.637  -4630819.930  -4180646.791
10 0 59581   9342.000000  0   -3366199.999  -4941168.009  -3430333.119
10 0 59581   9462.000000  0   -3745912.436  -5158331.313  -2619844.454
10 0 59581   9582.000000  0   -4063270.293  -5279453.501  -1763351.799
10 0 59581   9702.000000  0   -4310985.448  -5303493.260   -875867.317
10 0 59581   9822.000000  0   -4482985.240  -5231231.744     27021.760
10 0 59581   9942.000000  0   -4574557.078  -5065243.414    929433.106
10 0 59581  10062.000000  0   -4582466.988  -4809830.153   1815477.589
10 0 59581  10182.000000  0   -4505047.815  -4470919.302   2669548.645
10 0 59581  10302.000000  0   -4342255.414  -4055929.376   3476605.286
10 0 59581  10422.000000  0   -4095692.045  -3573607.249   4222443.502
10 0 59581  10542.000000  0   -3768595.509  -3033840.159   4893950.802
10 0 59581  10662.000000  0   -3365794.888  -2447447.876   5479336.533
10 0 59581  10782.000000  0   -2893635.759  -1825962.206   5968336.048
10 0 59581  10902.000000  0   -2359875.905  -1181397.405   6352387.335
10 0 59581  11022.000000  0   -1773553.162   -526014.369   6624776.616
10 0 59581  11142.000000  0   -1144827.216    127914.831   6780748.486
10 0 59581  11262.000000  0    -484802.212    768335.108   6817582.109
10 0 59581  11382.000000  0     194668.997   1383629.696   6734636.241
10 0 59581  11502.000000  0     881197.228   1962830.645   6533360.009
10 0 59581  11622.000000  0    1562082.412   2495814.406   6217268.539
10 0 59581  11742.000000  0    2224547.487   2973478.767   5791885.262
10 0 59581  11862.000000  0    2855978.295   3387900.592   5264652.159
10 0 59581  11982.000000  0    3444166.616   3732471.497   4644805.725
10 0 59581  12102.000000  0    3977548.703   4002006.370   3943218.913
10 0 59581  12222.000000  0    4445436.273   4192825.903   3172217.137
10 0 59581  12342.000000  0    4838238.635   4302809.687   2345361.261
10 0 59581  12462.000000  0    5147662.502   4331416.220   1477206.841
10 0 59581  12582.000000  0    5366891.166   4279671.714    583043.398
10 0 59581  12702.000000  0    5490734.879   4150126.011   -321383.037
10 0 59581  12822.000000  0    5515748.004   3946777.094  -1220156.460
99
